{
  "type": "FeatureCollection",
  "features": [
    {
      "type": "Feature",
      "properties": {
        "norad_id": 35476,
        "name": "COSMOS 2251 DEB",
        "group": "cosmos-2251-debris",
        "lat": 42.67789385592936,
        "lon": -124.86799080210804,
        "alt_km": 637.5067848208546,
        "timestamp": "2025-12-07T20:38:14.459697+00:00",
        "meta_object_name": "COSMOS 2251 DEB",
        "meta_object_id": "1993-036ALW",
        "meta_epoch": "2025-12-07T00:45:56.433024",
        "meta_mean_motion": 14.75483952,
        "meta_eccentricity": 0.0017383,
        "meta_inclination": 73.9785,
        "meta_ra_of_asc_node": 72.1202,
        "meta_arg_of_pericenter": 56.9957,
        "meta_mean_anomaly": 1.6076,
        "meta_ephemeris_type": 0,
        "meta_classification_type": "U",
        "meta_norad_cat_id": 35476,
        "meta_element_set_no": 999,
        "meta_rev_at_epoch": 87803,
        "meta_bstar": 0.0026587465,
        "meta_mean_motion_dot": 0.0001815,
        "meta_mean_motion_ddot": 0,
        "tle_line1": "1 35476U 93036ALW 25341.03190316  .00018150  00000+0  26587-2 0  9998",
        "tle_line2": "2 35476  73.9785  72.1202 0017383  56.9957   1.6076 14.75483952878037"
      },
      "geometry": {
        "type": "Point",
        "coordinates": [
          -124.86799080210804,
          42.67789385592936
        ]
      }
    },
    {
      "type": "Feature",
      "properties": {
        "norad_id": 35580,
        "name": "COSMOS 2251 DEB",
        "group": "cosmos-2251-debris",
        "lat": 40.90964313332023,
        "lon": -158.48706381808123,
        "alt_km": 1124.4270293433847,
        "timestamp": "2025-12-07T20:38:14.459707+00:00",
        "meta_object_name": "COSMOS 2251 DEB",
        "meta_object_id": "1993-036ALX",
        "meta_epoch": "2025-12-06T21:51:49.269024",
        "meta_mean_motion": 13.83821036,
        "meta_eccentricity": 0.02818687,
        "meta_inclination": 73.9,
        "meta_ra_of_asc_node": 188.633,
        "meta_arg_of_pericenter": 195.0077,
        "meta_mean_anomaly": 164.256,
        "meta_ephemeris_type": 0,
        "meta_classification_type": "U",
        "meta_norad_cat_id": 35580,
        "meta_element_set_no": 999,
        "meta_rev_at_epoch": 62176,
        "meta_bstar": 0.0026984958,
        "meta_mean_motion_dot": 4.042e-05,
        "meta_mean_motion_ddot": 0,
        "tle_line1": "1 35580U 93036ALX 25340.91098691  .00004042  00000+0  26985-2 0  9990",
        "tle_line2": "2 35580  73.9000 188.6330 0281868 195.0077 164.2560 13.83821036621764"
      },
      "geometry": {
        "type": "Point",
        "coordinates": [
          -158.48706381808123,
          40.90964313332023
        ]
      }
    },
    {
      "type": "Feature",
      "properties": {
        "norad_id": 35583,
        "name": "COSMOS 2251 DEB",
        "group": "cosmos-2251-debris",
        "lat": -57.13638322695556,
        "lon": 66.44742580672198,
        "alt_km": 773.5271979633517,
        "timestamp": "2025-12-07T20:38:14.459717+00:00",
        "meta_object_name": "COSMOS 2251 DEB",
        "meta_object_id": "1993-036AMA",
        "meta_epoch": "2025-12-06T09:46:22.855872",
        "meta_mean_motion": 13.55320522,
        "meta_eccentricity": 0.03857217,
        "meta_inclination": 73.9174,
        "meta_ra_of_asc_node": 222.2787,
        "meta_arg_of_pericenter": 247.7895,
        "meta_mean_anomaly": 108.1877,
        "meta_ephemeris_type": 0,
        "meta_classification_type": "U",
        "meta_norad_cat_id": 35583,
        "meta_element_set_no": 999,
        "meta_rev_at_epoch": 82326,
        "meta_bstar": 0.00085653022,
        "meta_mean_motion_dot": 9.31e-06,
        "meta_mean_motion_ddot": 0,
        "tle_line1": "1 35583U 93036AMA 25340.40720898  .00000931  00000+0  85653-3 0  9999",
        "tle_line2": "2 35583  73.9174 222.2787 0385721 247.7895 108.1877 13.55320522823266"
      },
      "geometry": {
        "type": "Point",
        "coordinates": [
          66.44742580672198,
          -57.13638322695556
        ]
      }
    },
    {
      "type": "Feature",
      "properties": {
        "norad_id": 35585,
        "name": "COSMOS 2251 DEB",
        "group": "cosmos-2251-debris",
        "lat": -22.398500516387465,
        "lon": -176.6330274869752,
        "alt_km": 888.7143387327324,
        "timestamp": "2025-12-07T20:38:14.459726+00:00",
        "meta_object_name": "COSMOS 2251 DEB",
        "meta_object_id": "1993-036AMC",
        "meta_epoch": "2025-12-04T07:54:11.347200",
        "meta_mean_motion": 13.75209322,
        "meta_eccentricity": 0.0310609,
        "meta_inclination": 73.9717,
        "meta_ra_of_asc_node": 2.4547,
        "meta_arg_of_pericenter": 276.3473,
        "meta_mean_anomaly": 97.5406,
        "meta_ephemeris_type": 0,
        "meta_classification_type": "U",
        "meta_norad_cat_id": 35585,
        "meta_element_set_no": 999,
        "meta_rev_at_epoch": 63948,
        "meta_bstar": 0.0020064,
        "meta_mean_motion_dot": 2.707e-05,
        "meta_mean_motion_ddot": 0,
        "tle_line1": "1 35585U 93036AMC 25338.32929800  .00002707  00000+0  20064-2 0  9990",
        "tle_line2": "2 35585  73.9717   2.4547 0310609 276.3473  97.5406 13.75209322639480"
      },
      "geometry": {
        "type": "Point",
        "coordinates": [
          -176.6330274869752,
          -22.398500516387465
        ]
      }
    },
    {
      "type": "Feature",
      "properties": {
        "norad_id": 35586,
        "name": "COSMOS 2251 DEB",
        "group": "cosmos-2251-debris",
        "lat": 69.53646280430733,
        "lon": 0.4598131690986312,
        "alt_km": 1147.6421216841427,
        "timestamp": "2025-12-07T20:38:14.459737+00:00",
        "meta_object_name": "COSMOS 2251 DEB",
        "meta_object_id": "1993-036AMD",
        "meta_epoch": "2025-12-02T16:49:03.133344",
        "meta_mean_motion": 13.52074918,
        "meta_eccentricity": 0.04051153,
        "meta_inclination": 74.0205,
        "meta_ra_of_asc_node": 318.5607,
        "meta_arg_of_pericenter": 196.0051,
        "meta_mean_anomaly": 342.734,
        "meta_ephemeris_type": 0,
        "meta_classification_type": "U",
        "meta_norad_cat_id": 35586,
        "meta_element_set_no": 999,
        "meta_rev_at_epoch": 60246,
        "meta_bstar": 0.00045411914,
        "meta_mean_motion_dot": 4.79e-06,
        "meta_mean_motion_ddot": 0,
        "tle_line1": "1 35586U 93036AMD 25336.70073071  .00000479  00000+0  45412-3 0  9990",
        "tle_line2": "2 35586  74.0205 318.5607 0405115 196.0051 342.7340 13.52074918602466"
      },
      "geometry": {
        "type": "Point",
        "coordinates": [
          0.4598131690986312,
          69.53646280430733
        ]
      }
    },
    {
      "type": "Feature",
      "properties": {
        "norad_id": 35587,
        "name": "COSMOS 2251 DEB",
        "group": "cosmos-2251-debris",
        "lat": 14.146297797119797,
        "lon": 72.07666897058556,
        "alt_km": 690.5349161488957,
        "timestamp": "2025-12-07T20:38:14.459747+00:00",
        "meta_object_name": "COSMOS 2251 DEB",
        "meta_object_id": "1993-036AME",
        "meta_epoch": "2025-12-06T23:21:29.867040",
        "meta_mean_motion": 14.71485933,
        "meta_eccentricity": 0.01027904,
        "meta_inclination": 74.0056,
        "meta_ra_of_asc_node": 69.6568,
        "meta_arg_of_pericenter": 258.589,
        "meta_mean_anomaly": 100.3722,
        "meta_ephemeris_type": 0,
        "meta_classification_type": "U",
        "meta_norad_cat_id": 35587,
        "meta_element_set_no": 999,
        "meta_rev_at_epoch": 66261,
        "meta_bstar": 0.00050810605,
        "meta_mean_motion_dot": 3.388e-05,
        "meta_mean_motion_ddot": 0,
        "tle_line1": "1 35587U 93036AME 25340.97326235  .00003388  00000+0  50811-3 0  9999",
        "tle_line2": "2 35587  74.0056  69.6568 0102790 258.5890 100.3722 14.71485933662619"
      },
      "geometry": {
        "type": "Point",
        "coordinates": [
          72.07666897058556,
          14.146297797119797
        ]
      }
    },
    {
      "type": "Feature",
      "properties": {
        "norad_id": 35593,
        "name": "COSMOS 2251 DEB",
        "group": "cosmos-2251-debris",
        "lat": -47.99173235579811,
        "lon": 135.70132689499928,
        "alt_km": 791.7753813087465,
        "timestamp": "2025-12-07T20:38:14.459757+00:00",
        "meta_object_name": "COSMOS 2251 DEB",
        "meta_object_id": "1993-036AML",
        "meta_epoch": "2025-12-06T06:29:47.973696",
        "meta_mean_motion": 14.25548393,
        "meta_eccentricity": 0.01053072,
        "meta_inclination": 74.0859,
        "meta_ra_of_asc_node": 300.0924,
        "meta_arg_of_pericenter": 308.0252,
        "meta_mean_anomaly": 51.1424,
        "meta_ephemeris_type": 0,
        "meta_classification_type": "U",
        "meta_norad_cat_id": 35593,
        "meta_element_set_no": 999,
        "meta_rev_at_epoch": 84973,
        "meta_bstar": 0.0026306785,
        "meta_mean_motion_dot": 6.575e-05,
        "meta_mean_motion_ddot": 0,
        "tle_line1": "1 35593U 93036AML 25340.27069414  .00006575  00000+0  26307-2 0  9995",
        "tle_line2": "2 35593  74.0859 300.0924 0105307 308.0252  51.1424 14.25548393849736"
      },
      "geometry": {
        "type": "Point",
        "coordinates": [
          135.70132689499928,
          -47.99173235579811
        ]
      }
    }
  ]
}